name,streetaddress,city,state,zipcode,upvotes,downvotes
Enim LLC,3754 Ornare Rd.,Owensboro,KY,53070,9,10
Libero LLP,769-2591 Aliquet. Ave,Virginia Beach,VA,97895,9,4
Turpis Nec Mauris Incorporated,844-9075 Purus Ave,Covington,KY,32647,9,7
Urna Nunc Quis Limited,7997 Egestas. Av.,College,AK,99968,3,2
Vitae Semper Industries,691-2269 Interdum. St.,Houston,TX,42036,5,1
Vulputate Velit Inc.,Ap #264-8039 Vitae Rd.,Kailua,HI,77278,4,5
Donec Non Limited,"P.O. Box 352, 8281 Lorem Street",Spokane,WA,16463,4,8
Sem Incorporated,649-969 Magnis Av.,Fort Collins,CO,98957,8,10
Eget Magna Suspendisse PC,Ap #265-5584 Lorem Road,Lakewood,CO,60518,4,4
Fermentum Convallis LLP,Ap #605-4004 Libero Road,Springfield,IL,57305,10,7
Ultrices Incorporated,7914 Tellus Avenue,Springfield,IL,62611,3,9
Faucibus Orci Luctus Foundation,860-9830 Urna Av.,Clarksville,TN,66627,6,4
Ut Limited,8290 Ante Av.,Owensboro,KY,29940,2,9
Massa Suspendisse Eleifend Incorporated,763 Mattis. St.,Houston,TX,44590,8,3
Nunc In Consulting,"P.O. Box 746, 4139 Eget Rd.",Missoula,MT,99747,8,7
Faucibus Lectus LLP,Ap #511-8275 Feugiat Avenue,Lowell,MA,47064,1,9
Nisi Aenean Ltd,309 Mauris Ave,Salt Lake City,UT,80373,9,8
Nonummy Foundation,Ap #654-4045 Proin Road,Warren,MI,86686,1,8
Facilisis Lorem Consulting,"P.O. Box 648, 9297 Nunc Rd.",Jonesboro,AR,72584,5,1
Facilisis Vitae Limited,"P.O. Box 481, 6312 Euismod Road",Toledo,OH,64823,3,3
Suspendisse Dui Fusce Corp.,2718 Sem Av.,Colchester,VT,60149,2,1
Et Industries,951-6485 Tempus Road,Waterbury,CT,53051,7,8
Cum Sociis Natoque Industries,Ap #259-193 Pede. Road,Rockville,MD,86588,7,8
Vitae Erat Foundation,Ap #177-1426 Duis St.,Wyoming,WY,82195,3,7
Ante Ltd,9639 In Ave,Olathe,KS,78092,7,5
Aliquet LLP,Ap #837-8987 Ullamcorper. Avenue,Jacksonville,FL,96484,8,1
Tincidunt Consulting,Ap #578-8810 Lectus Street,Chesapeake,VA,91218,4,10
Vel Lectus Cum Corp.,Ap #393-7281 Egestas. Rd.,Boise,ID,35975,1,1
Euismod Urna Inc.,603-1741 Sapien. St.,Salt Lake City,UT,32847,5,2
Semper Dui Lectus Ltd,786-3670 Auctor Av.,Sacramento,CA,91963,6,9
Et Malesuada Consulting,"P.O. Box 681, 1864 At, Rd.",North Las Vegas,NV,40177,5,8
Hendrerit Neque Incorporated,146-2190 Diam St.,Phoenix,AZ,85921,4,1
Placerat PC,"P.O. Box 986, 1262 Ornare, Street",Southaven,MS,29163,9,3
Rhoncus Donec Est Associates,"P.O. Box 866, 1582 Elementum, Road",Worcester,MA,38683,10,7
Mauris Company,6447 Tortor Rd.,Laramie,WY,37817,9,4
Praesent Luctus Curabitur Company,5647 Urna Av.,Davenport,IA,85136,9,1
In Company,9957 Volutpat Road,Erie,PA,15330,2,5
Libero Limited,"3863 Nec, Av.",Gulfport,MS,66592,9,3
Donec Tempus LLC,"P.O. Box 970, 5165 Ullamcorper. Street",Joliet,IL,64924,8,9
Sed Associates,519-7355 Aliquam Av.,Ketchikan,AK,99784,4,5
Tristique Pellentesque Tellus LLP,"P.O. Box 904, 4681 Sed Rd.",Glendale,AZ,86945,6,8
Tristique Company,2451 Sem Road,Toledo,OH,23038,10,10
Diam Luctus Associates,"P.O. Box 576, 1919 Vitae, St.",Billings,MT,79796,8,6
Amet LLP,Ap #367-6673 In St.,Jefferson City,MO,76073,6,10
Vestibulum Limited,Ap #172-9690 Ornare. Avenue,Ketchikan,AK,99581,10,6
Ac LLC,"2941 Ut, Rd.",Tallahassee,FL,36897,7,4
Metus Aliquam Erat LLP,7341 Lectus. St.,Carson City,NV,46345,6,2
Ultricies Consulting,"280-3155 Ut, Rd.",Hillsboro,OR,64192,4,1
Dictum Sapien Aenean Incorporated,"P.O. Box 565, 429 Mi, Avenue",Little Rock,AR,72873,6,6
Aliquam Associates,873-9497 Dictum Av.,Bellevue,WA,10540,9,9
Eget LLP,355-5043 Vel Road,Chesapeake,VA,12939,9,7
Cras Eget Company,"P.O. Box 695, 9616 Dapibus Road",Bridgeport,CT,79655,7,4
Malesuada Augue Ut PC,6647 Quis Rd.,Green Bay,WI,81211,9,4
Sit Amet Associates,930-4285 Nec St.,Billings,MT,75208,10,1
Magna Phasellus Dolor LLP,737-6704 Egestas Street,Hattiesburg,MS,84786,8,1
Nec Corp.,984 Sed Rd.,Bloomington,MN,57577,9,3
Ut Aliquam Iaculis Institute,"P.O. Box 836, 9603 Feugiat Rd.",Nampa,ID,86557,1,7
Nec Ante Blandit Ltd,469-9416 In Avenue,Pike Creek,DE,69271,3,3
Nonummy LLC,648-1946 In Av.,Fort Wayne,IN,50683,5,4
Et Netus LLC,2904 Egestas Ave,Lewiston,ME,40435,2,5
In Lorem Limited,"P.O. Box 965, 7981 Adipiscing Street",Los Angeles,CA,90752,5,1
Neque Sed Eget Ltd,766-8538 Vivamus Av.,Nashville,TN,16823,9,6
Velit Egestas Lacinia Inc.,Ap #326-3322 Vel Avenue,Topeka,KS,32222,4,1
Libero Proin Sed Limited,"P.O. Box 171, 9838 Aliquam Rd.",Erie,PA,94289,5,7
Tempus Lorem Fringilla PC,"P.O. Box 902, 2734 Lorem Av.",Carson City,NV,94319,3,4
Scelerisque Dui Suspendisse Corp.,Ap #508-6855 Nec Av.,Fort Wayne,IN,76837,9,10
Consequat Dolor Vitae Inc.,Ap #128-2555 Lectus St.,Houston,TX,69868,8,7
Mauris Associates,353-8908 Ipsum. Av.,Aurora,CO,99939,4,10
Nec PC,5788 Molestie St.,Tallahassee,FL,20683,6,9
Aliquam Incorporated,Ap #457-8276 Tellus. Street,Carson City,NV,98162,1,4
Metus Eu Corp.,Ap #904-8303 Dolor. Road,Lakewood,CO,36397,6,9
Vivamus Non Lorem Ltd,"689 Vulputate, Rd.",Augusta,GA,99552,10,10
Dolor Sit Amet LLP,355 Vehicula Av.,Seattle,WA,68629,9,3
Fermentum Institute,"P.O. Box 668, 8452 Montes, Rd.",Billings,MT,54980,6,2
Tellus Lorem Associates,"P.O. Box 607, 9510 Faucibus Av.",Shreveport,LA,11046,9,3
Pretium Neque Morbi Corp.,"P.O. Box 165, 1003 Quisque Av.",Lafayette,LA,69568,5,6
Neque Nullam Ut Ltd,Ap #442-8177 Pellentesque Road,Houston,TX,31263,8,8
Lorem Lorem PC,850-9739 Feugiat Road,Dallas,TX,68323,10,5
Nunc Quisque Ornare Institute,295-921 Cras Road,Hilo,HI,89694,1,4
Ac Fermentum Company,632-4526 Ac Ave,San Jose,CA,94755,9,7
Cras Pellentesque Sed Consulting,Ap #980-9423 Fringilla Street,Columbia,MO,62384,2,3
Urna Company,633-4920 Erat Street,Lawton,OK,28368,8,9
Ullamcorper Magna Sed Corporation,795-4224 Erat Rd.,Montpelier,VT,35914,3,9
Eleifend Inc.,Ap #326-7396 Metus St.,South Bend,IN,38460,8,5
Fusce Aliquet Incorporated,9156 Lacus. Rd.,Carson City,NV,26645,8,8
Sit Amet Luctus LLC,6697 Neque Rd.,Augusta,GA,23143,1,6
Sed Nec Industries,"4747 Eu, Ave",Minneapolis,MN,67183,10,4
Et Commodo Company,"P.O. Box 953, 6164 Vitae Rd.",Lafayette,LA,63133,10,7
Dui Nec Limited,"P.O. Box 167, 3160 Integer St.",Atlanta,GA,81068,6,3
Elementum Sem PC,3368 Nonummy Av.,Birmingham,AL,36605,7,8
Eu Consulting,"P.O. Box 266, 4723 Cras Ave",Olathe,KS,55327,4,5
Sit Amet LLC,"P.O. Box 780, 2655 A, Street",Erie,PA,86256,10,9
Magna Associates,Ap #147-4558 Metus St.,Las Vegas,NV,27185,4,5
Fusce Dolor Quam Corporation,Ap #345-1378 Ad Av.,Montpelier,VT,99718,10,4
Aliquet Libero Inc.,Ap #588-6283 Neque Ave,Rock Springs,WY,12176,8,1
Velit Justo Nec LLC,7899 Fermentum St.,Reno,NV,41789,1,2
Ornare Elit Elit Corp.,6875 Ac Ave,Covington,KY,97604,3,4
Proin LLC,618-3418 Non Rd.,Fayetteville,AR,72228,7,1
Auctor Institute,373-803 Odio. Street,Montpelier,VT,46666,7,2
Nunc Mauris Sapien Associates,"P.O. Box 522, 6201 In Avenue",Independence,MO,70523,10,7