name,streetaddress,city,state,zipcode
Class Aptent Taciti Company,Ap #571-3428 Egestas St.,Eugene,OR,39513
Cursus Ltd,7877 Nascetur St.,Kenosha,WI,14649
Augue Ac Corp.,"P.O. Box 245, 1307 Nulla. Road",Iowa City,IA,39641
Arcu Consulting,"P.O. Box 924, 6915 Etiam Ave",Covington,KY,21031
Orci LLC,Ap #449-5766 Mi St.,Pocatello,ID,59358
Sit Amet Industries,"P.O. Box 719, 3177 Ornare, Street",Little Rock,AR,71305
Eget Tincidunt Ltd,Ap #902-4196 Laoreet Avenue,Georgia,GA,43363
Iaculis Incorporated,"P.O. Box 798, 6192 Proin Av.",Juneau,AK,99504
Urna Suscipit Nonummy Limited,3164 Mi Street,Mesa,AZ,85027
Aenean Euismod Mauris Industries,Ap #757-6759 Nam Avenue,Chicago,IL,29598
Amet Orci Ut LLP,8256 Pellentesque Street,Juneau,AK,99934
Nam Tempor Diam Industries,"P.O. Box 496, 235 Parturient Road",Columbus,OH,13889
Hendrerit Foundation,421-1635 Metus St.,Fairbanks,AK,99821
Diam Associates,515-7991 Tempor Rd.,Broken Arrow,OK,66726
Sed Id Risus Industries,"P.O. Box 329, 1032 Nisi Rd.",Gaithersburg,MD,10895
Suspendisse Sagittis Industries,"P.O. Box 732, 9552 Congue Road",Glendale,AZ,86301
Vulputate Ltd,436-3602 Tempus St.,Savannah,GA,42695
Suspendisse Corporation,"P.O. Box 975, 8026 Quisque Av.",Virginia Beach,VA,39782
Ante Consulting,9630 Primis St.,Lawton,OK,55103
Cum Sociis Natoque LLC,Ap #709-7168 Mus. Av.,Sterling Heights,MI,36158
Malesuada Integer LLC,338 Nibh Ave,Olympia,WA,25676
Justo Sit Corporation,617 Dignissim Rd.,Allentown,PA,30115
Montes Nascetur Incorporated,"P.O. Box 916, 3877 Ultricies Road",Covington,KY,34198
Iaculis Corporation,"P.O. Box 546, 2124 Felis Rd.",Broken Arrow,OK,13127
Integer Vulputate Risus LLC,"P.O. Box 813, 2206 Urna Rd.",Memphis,TN,12279
Sem Semper Erat Foundation,292-1754 Neque Street,Austin,TX,43779
Pede PC,9924 Varius St.,Iowa City,IA,85077
Amet Nulla Associates,"P.O. Box 476, 6375 Vestibulum Rd.",Baton Rouge,LA,56297
Vitae Aliquam Eros Incorporated,Ap #885-7781 Praesent St.,Casper,WY,95575
Suspendisse Ac Ltd,"P.O. Box 369, 7916 Nunc Street",Houston,TX,62039
Malesuada Ut Consulting,4070 Consectetuer Ave,Cedar Rapids,IA,11388
Luctus PC,383-345 Vulputate Rd.,Pike Creek,DE,73210
Gravida Molestie Arcu Industries,Ap #923-4323 Arcu Rd.,Topeka,KS,17602
Eu Limited,8694 Vestibulum Ave,Olathe,KS,71163
Malesuada Fames Ac Inc.,"P.O. Box 239, 1563 Nunc Road",Rutland,VT,23035
Duis Volutpat Incorporated,"8336 Erat, Avenue",Cedar Rapids,IA,21234
Pede Cum Corporation,"P.O. Box 490, 3131 Sodales Road",Boston,MA,50405
Est Consulting,"P.O. Box 688, 8556 Fusce Rd.",Shreveport,LA,34559
In Consectetuer PC,557 Semper Road,Milwaukee,WI,23730
Massa Suspendisse Eleifend Incorporated,Ap #384-3930 Enim St.,Orlando,FL,92564
Nunc Sed Ltd,458-276 Purus. Avenue,Virginia Beach,VA,90349
Accumsan Convallis Ante LLC,140-7161 Aliquam St.,Gillette,WY,45002
Auctor Quis PC,"P.O. Box 496, 4266 Ante Av.",Newark,DE,58923
Justo Proin Foundation,"P.O. Box 375, 1955 Tristique St.",Aurora,CO,85894
Imperdiet Ullamcorper Duis Corp.,148-4495 Lacus. Street,Minneapolis,MN,26211
Curae; Consulting,368 Vulputate St.,Rock Springs,WY,80860
Elementum At Incorporated,"P.O. Box 594, 5679 Integer Ave",Bridgeport,CT,66266
Non Lacinia Corporation,6268 Laoreet St.,Bangor,ME,56409
Nunc Industries,Ap #649-9993 Non St.,Chicago,IL,71079
Blandit Nam Nulla Ltd,"P.O. Box 886, 8130 Lectus St.",Evansville,IN,26769
Facilisis LLP,7524 Lacus St.,Clarksville,TN,15281
Sit Amet Risus Corp.,554-7470 Enim. Rd.,Fayetteville,AR,72584
Lorem Ipsum Ltd,"P.O. Box 126, 9684 Eu Av.",Tallahassee,FL,21725
Eget Tincidunt Dui Industries,260-5074 Iaculis Road,Augusta,ME,42197
Orci Lobortis Augue Corp.,432-3833 Nulla. Road,Reno,NV,74136
Ullamcorper Duis LLP,"P.O. Box 979, 2712 Neque Ave",Flint,MI,63639
Nibh Limited,Ap #213-4250 Ut Rd.,Overland Park,KS,42317
Enim Diam Associates,Ap #645-351 Sem Av.,Lafayette,LA,17863
Aliquam Consulting,Ap #322-4578 Metus. Av.,Bloomington,MN,92477
Elit Etiam Laoreet Institute,"P.O. Box 633, 7448 Erat. St.",Covington,KY,68616
Dolor Industries,"P.O. Box 974, 2452 Nulla. Rd.",Wilmington,DE,46777
Amet Faucibus LLC,"P.O. Box 711, 9925 Sit Street",Southaven,MS,80324
Nunc Quis Arcu Inc.,240-4164 Blandit Av.,Biloxi,MS,70926
Erat Nonummy Ultricies Consulting,"P.O. Box 308, 9371 Nullam Rd.",Orlando,FL,41864
Consectetuer Rhoncus Incorporated,2878 Malesuada Rd.,Cleveland,OH,21284
Egestas Lacinia Sed Industries,966-579 Mus. Rd.,Sterling Heights,MI,58352
Aenean LLP,"P.O. Box 543, 2656 Semper Street",Austin,TX,46841
Malesuada Vel Ltd,443-6933 Aliquet Ave,Mesa,AZ,85775
Iaculis Quis Pede Consulting,Ap #412-4542 Nunc Rd.,Southaven,MS,91598
Eget Venenatis A Corp.,"P.O. Box 431, 6829 Lacinia St.",Baltimore,MD,71070
Sed Libero Inc.,Ap #684-931 Malesuada Street,Orlando,FL,23972
Blandit Ltd,415-9150 Duis Rd.,Spokane,WA,24382
Lobortis Class Aptent Industries,707-3412 Nulla Ave,Tulsa,OK,17539
Eros Nam PC,"P.O. Box 862, 6711 Malesuada Rd.",Kapolei,HI,96425
Sed Ltd,"P.O. Box 374, 5718 Non Rd.",Mobile,AL,36048
Sem Consequat Associates,498-8227 Ante Av.,Broken Arrow,OK,68618
Viverra Maecenas Institute,Ap #175-4537 Dignissim Rd.,Springfield,MO,13843
Sem Egestas Blandit Corp.,9687 Nunc Road,Lafayette,LA,69183
Eros LLC,"P.O. Box 763, 3770 Fringilla St.",Colchester,VT,75283
Consectetuer Adipiscing Elit Consulting,"P.O. Box 772, 9262 Dictum Rd.",Savannah,GA,20545
Bibendum Associates,Ap #470-8603 Convallis Ave,Mobile,AL,36546
Sagittis Semper Nam LLP,Ap #181-1473 Nulla. Avenue,Provo,UT,87446
Pharetra Quisque Ac Foundation,Ap #832-2615 Molestie. St.,Tampa,FL,13193
Egestas Associates,205-999 Tempor Street,Philadelphia,PA,93827
Vitae Nibh Donec Corporation,5822 Libero Av.,Essex,VT,19905
Fermentum Convallis LLP,Ap #714-1400 Nulla Ave,Kailua,HI,48177
Arcu Morbi Sit Institute,Ap #306-634 Quisque Road,Montpelier,VT,51130
Montes Nascetur Ridiculus Corporation,Ap #404-7252 Pede. Street,Bellevue,NE,97711
Tempus Risus Donec Company,Ap #683-4980 Adipiscing Road,Boise,ID,78629
Fringilla Ornare LLC,3942 Mi Avenue,Montpelier,VT,82581
Pede Malesuada Vel LLC,"P.O. Box 957, 2052 Malesuada Rd.",Naperville,IL,81328
Lectus Incorporated,Ap #706-7040 Tristique Street,Newark,DE,84227
Cras Sed Corporation,"741-9445 Eu, Rd.",New Haven,CT,25850
Aliquam Nisl Nulla Corporation,4427 Aliquam Road,South Burlington,VT,80380
Purus Ac Tellus Company,Ap #634-8614 Sodales Road,Great Falls,MT,45060
Morbi Tristique LLP,"P.O. Box 825, 4628 Orci Street",Kapolei,HI,34667
Lobortis Quam A Limited,Ap #752-6023 Nisi Avenue,Anchorage,AK,99648
Sed Sem Egestas Consulting,Ap #700-3034 Mauris Ave,Pittsburgh,PA,55572
Vivamus Nibh Dolor Company,3174 Duis Rd.,Virginia Beach,VA,14431
Ullamcorper Institute,"138-6462 Eu, Street",Oklahoma City,OK,86499